[{"OBJECT_NAME":"YAOGAN-27","OBJECT_ID":"2015-040A","EPOCH":"2026-03-09T23:21:37.385568","MEAN_MOTION":13.16063344,"ECCENTRICITY":0.00088956,"INCLINATION":100.1112,"RA_OF_ASC_NODE":59.6878,"ARG_OF_PERICENTER":83.8271,"MEAN_ANOMALY":276.3856,"EPHEMERIS_TYPE":0,"CLASSIFICATION_TYPE":"U","NORAD_CAT_ID":40878,"ELEMENT_SET_NO":999,"REV_AT_EPOCH":50461,"BSTAR":-0.0012687486,"MEAN_MOTION_DOT":-5.24e-6,"MEAN_MOTION_DDOT":0},{"OBJECT_NAME":"ONEWEB-0554","OBJECT_ID":"2023-043L","EPOCH":"2026-03-09T22:00:48.822336","MEAN_MOTION":13.16593386,"ECCENTRICITY":0.00013087,"INCLINATION":87.9001,"RA_OF_ASC_NODE":248.5289,"ARG_OF_PERICENTER":98.741,"MEAN_ANOMALY":261.3869,"EPHEMERIS_TYPE":0,"CLASSIFICATION_TYPE":"U","NORAD_CAT_ID":56056,"ELEMENT_SET_NO":999,"REV_AT_EPOCH":14589,"BSTAR":-0.00015808605,"MEAN_MOTION_DOT":-4.8e-7,"MEAN_MOTION_DDOT":0}]
